ONEWEB-0645             
1 55809U 23029P   24155.78173147  .00000082  00000+0  17163-3 0  9998
2 55809  87.9155  92.9176 0002535  90.6725 269.4699 13.19723905 60856
ONEWEB-0646             
1 55810U 23029Q   24155.58427279 -.00000036  00000+0 -12298-3 0  9991
2 55810  87.9152  92.9565 0002370  78.7786 281.3613 13.19727386 60810
ONEWEB-0648             
1 55811U 23029R   24156.20281275 -.00000122  00000+0 -36451-3 0  9999
2 55811  87.8971  77.5254 0003085  89.2097 270.9386 13.14501563 62498
ONEWEB-0649             
1 55812U 23029S   24155.54715962  .00000079  00000+0  16506-3 0  9999
2 55812  87.9150  92.9600 0002608  85.2484 274.8946 13.19728234 60844
ONEWEB-0650             
1 55813U 23029T   24156.07315551  .00000008  00000+0 -13435-4 0  9991
2 55813  87.9151  92.8565 0002422  79.1297 281.0108 13.19723660 61572
ONEWEB-0652             
1 55814U 23029U   24155.72708181 -.00000153  00000+0 -44615-3 0  9993
2 55814  87.8970  77.6320 0001862  78.4267 281.7072 13.14503484 61692
ONEWEB-0653             
1 55815U 23029V   24155.48285535  .00000106  00000+0  25212-3 0  9998
2 55815  87.8976  77.6603 0001842  88.2633 271.8707 13.14501517 61697
ONEWEB-0654             
1 55816U 23029W   24155.78258127  .00000180  00000+0  45169-3 0  9994
2 55816  87.8973  77.6112 0001501  79.7932 280.3367 13.14502193 61754
